STARLINK-1056_new
1 14761C 19074BA  21326.16250007  .00006004  00000-0  40220-3 0  3263
2 14761  53.0541  68.0141 0001108  81.9327 327.0874 15.06402223    19
STARLINK-1056_old
1 24761C 19074BA  21325.13333322  .00004865  00000-0  32602-3 0  3258
2 24761  53.0538  72.6341 0001119  86.4112 138.3193 15.06389651    18
